[
    {
        "CCSDS_OMM_VERS": "3.0",
        "COMMENT": "GENERATED VIA SPACE-TRACK.ORG API",
        "CREATION_DATE": "2025-03-02T18:08:23",
        "ORIGINATOR": "18 SPCS",
        "OBJECT_NAME": "BEIDOU 16",
        "OBJECT_ID": "2012-059A",
        "CENTER_NAME": "EARTH",
        "REF_FRAME": "TEME",
        "TIME_SYSTEM": "UTC",
        "MEAN_ELEMENT_THEORY": "SGP4",
        "EPOCH": "2025-03-02T09:37:38.622144",
        "MEAN_MOTION": "1.00268208",
        "ECCENTRICITY": "0.00102920",
        "INCLINATION": "3.2190",
        "RA_OF_ASC_NODE": "78.3408",
        "ARG_OF_PERICENTER": "298.2955",
        "MEAN_ANOMALY": "12.1481",
        "EPHEMERIS_TYPE": "0",
        "CLASSIFICATION_TYPE": "U",
        "NORAD_CAT_ID": "38953",
        "ELEMENT_SET_NO": "999",
        "REV_AT_EPOCH": "4517",
        "BSTAR": "0.00000000000000",
        "MEAN_MOTION_DOT": "-0.00000176",
        "MEAN_MOTION_DDOT": "0.0000000000000",
        "SEMIMAJOR_AXIS": "42165.735",
        "PERIOD": "1436.148",
        "APOAPSIS": "35830.997",
        "PERIAPSIS": "35744.203",
        "OBJECT_TYPE": "PAYLOAD",
        "RCS_SIZE": "LARGE",
        "COUNTRY_CODE": "PRC",
        "LAUNCH_DATE": "2012-10-25",
        "SITE": "XSC",
        "DECAY_DATE": null,
        "FILE": "4657142",
        "GP_ID": "282084709",
        "TLE_LINE0": "0 BEIDOU 16",
        "TLE_LINE1": "1 38953U 12059A   25061.40114146 -.00000176  00000-0  00000-0 0  9995",
        "TLE_LINE2": "2 38953   3.2190  78.3408 0010292 298.2955  12.1481  1.00268208 45170"
    }
]